ONEWEB-0283             
1 49001U 21060AL  24231.37605945  .00000117  00000+0  27243-3 0  9993
2 49001  87.9150   1.7579 0001519  96.7225 263.4079 13.16596578153069
ONEWEB-0284             
1 49002U 21060AM  24231.36973013  .00000114  00000+0  26479-3 0  9994
2 49002  87.9145   1.7388 0001730 103.9774 256.1550 13.16594658153034
ONEWEB-0286             
1 49076U 21075B   24231.19417307 -.00000346  00000+0 -99622-3 0  9990
2 49076  87.8921 123.7074 0002085  76.9470 283.1891 13.12440264147927
ONEWEB-0287             
1 49077U 21075C   24231.30846984  .00000082  00000+0  17714-3 0  9998
2 49077  87.9189 138.8758 0002093  80.2363 279.9005 13.17650396146641
ONEWEB-0288             
1 49078U 21075D   24231.18040876 -.00000107  00000+0 -33390-3 0  9999
2 49078  87.8929 123.7124 0001919  81.5820 278.5526 13.12442813148554
ONEWEB-0289             
1 49079U 21075E   24231.18567757  .00000095  00000+0  21072-3 0  9990
2 49079  87.9180 138.9300 0001845  75.0793 285.0543 13.17650928147200
ONEWEB-0290             
1 49080U 21075F   24231.24383523  .00000048  00000+0  89398-4 0  9990
2 49080  87.9183 138.8781 0002108  89.1642 270.9731 13.17646176146637
